<?xml version="1.0" encoding="UTF-8"?>
<ndm xmlns:xsi="http://www.w3.org/2001/XMLSchema-instance" xsi:noNamespaceSchemaLocation="https://sanaregistry.org/r/ndmxml_unqualified/ndmxml-2.0.0-master-2.0.xsd">
<omm id="CCSDS_OMM_VERS" version="2.0">
<header><CREATION_DATE/><ORIGINATOR/></header><body><segment><metadata><OBJECT_NAME>ORBCOMM FM103</OBJECT_NAME><OBJECT_ID>2014-040F</OBJECT_ID><CENTER_NAME>EARTH</CENTER_NAME><REF_FRAME>TEME</REF_FRAME><TIME_SYSTEM>UTC</TIME_SYSTEM><MEAN_ELEMENT_THEORY>SGP4</MEAN_ELEMENT_THEORY></metadata><data><meanElements><EPOCH>2024-10-02T01:40:15.737376</EPOCH><MEAN_MOTION>14.57142925</MEAN_MOTION><ECCENTRICITY>.0002049</ECCENTRICITY><INCLINATION>47.0042</INCLINATION><RA_OF_ASC_NODE>155.9902</RA_OF_ASC_NODE><ARG_OF_PERICENTER>186.6611</ARG_OF_PERICENTER><MEAN_ANOMALY>173.4247</MEAN_ANOMALY></meanElements><tleParameters><EPHEMERIS_TYPE>0</EPHEMERIS_TYPE><CLASSIFICATION_TYPE>U</CLASSIFICATION_TYPE><NORAD_CAT_ID>40091</NORAD_CAT_ID><ELEMENT_SET_NO>999</ELEMENT_SET_NO><REV_AT_EPOCH>52644</REV_AT_EPOCH><BSTAR>.71627E-3</BSTAR><MEAN_MOTION_DOT>.3094E-4</MEAN_MOTION_DOT><MEAN_MOTION_DDOT>0</MEAN_MOTION_DDOT></tleParameters></data></segment></body></omm>
<omm id="CCSDS_OMM_VERS" version="2.0">
<header><CREATION_DATE/><ORIGINATOR/></header><body><segment><metadata><OBJECT_NAME>ORBCOMM FM114</OBJECT_NAME><OBJECT_ID>2015-081A</OBJECT_ID><CENTER_NAME>EARTH</CENTER_NAME><REF_FRAME>TEME</REF_FRAME><TIME_SYSTEM>UTC</TIME_SYSTEM><MEAN_ELEMENT_THEORY>SGP4</MEAN_ELEMENT_THEORY></metadata><data><meanElements><EPOCH>2024-10-02T18:50:10.023936</EPOCH><MEAN_MOTION>14.57120743</MEAN_MOTION><ECCENTRICITY>.0003132</ECCENTRICITY><INCLINATION>47.0017</INCLINATION><RA_OF_ASC_NODE>61.8152</RA_OF_ASC_NODE><ARG_OF_PERICENTER>248.9046</ARG_OF_PERICENTER><MEAN_ANOMALY>111.1505</MEAN_ANOMALY></meanElements><tleParameters><EPHEMERIS_TYPE>0</EPHEMERIS_TYPE><CLASSIFICATION_TYPE>U</CLASSIFICATION_TYPE><NORAD_CAT_ID>41179</NORAD_CAT_ID><ELEMENT_SET_NO>999</ELEMENT_SET_NO><REV_AT_EPOCH>46696</REV_AT_EPOCH><BSTAR>.15187E-2</BSTAR><MEAN_MOTION_DOT>.6751E-4</MEAN_MOTION_DOT><MEAN_MOTION_DDOT>0</MEAN_MOTION_DDOT></tleParameters></data></segment></body></omm>
<omm id="CCSDS_OMM_VERS" version="2.0">
<header><CREATION_DATE/><ORIGINATOR/></header><body><segment><metadata><OBJECT_NAME>ORBCOMM FM119</OBJECT_NAME><OBJECT_ID>2015-081B</OBJECT_ID><CENTER_NAME>EARTH</CENTER_NAME><REF_FRAME>TEME</REF_FRAME><TIME_SYSTEM>UTC</TIME_SYSTEM><MEAN_ELEMENT_THEORY>SGP4</MEAN_ELEMENT_THEORY></metadata><data><meanElements><EPOCH>2024-10-02T10:01:51.195360</EPOCH><MEAN_MOTION>14.57129515</MEAN_MOTION><ECCENTRICITY>.0002196</ECCENTRICITY><INCLINATION>47.0014</INCLINATION><RA_OF_ASC_NODE>332.7755</RA_OF_ASC_NODE><ARG_OF_PERICENTER>295.2067</ARG_OF_PERICENTER><MEAN_ANOMALY>64.8591</MEAN_ANOMALY></meanElements><tleParameters><EPHEMERIS_TYPE>0</EPHEMERIS_TYPE><CLASSIFICATION_TYPE>U</CLASSIFICATION_TYPE><NORAD_CAT_ID>41180</NORAD_CAT_ID><ELEMENT_SET_NO>999</ELEMENT_SET_NO><REV_AT_EPOCH>46811</REV_AT_EPOCH><BSTAR>.99257E-3</BSTAR><MEAN_MOTION_DOT>.4353E-4</MEAN_MOTION_DOT><MEAN_MOTION_DDOT>0</MEAN_MOTION_DDOT></tleParameters></data></segment></body></omm>
<omm id="CCSDS_OMM_VERS" version="2.0">
<header><CREATION_DATE/><ORIGINATOR/></header><body><segment><metadata><OBJECT_NAME>ORBCOMM FM105</OBJECT_NAME><OBJECT_ID>2015-081C</OBJECT_ID><CENTER_NAME>EARTH</CENTER_NAME><REF_FRAME>TEME</REF_FRAME><TIME_SYSTEM>UTC</TIME_SYSTEM><MEAN_ELEMENT_THEORY>SGP4</MEAN_ELEMENT_THEORY></metadata><data><meanElements><EPOCH>2024-10-02T10:51:09.495072</EPOCH><MEAN_MOTION>14.44685620</MEAN_MOTION><ECCENTRICITY>.0002593</ECCENTRICITY><INCLINATION>47.0022</INCLINATION><RA_OF_ASC_NODE>312.9086</RA_OF_ASC_NODE><ARG_OF_PERICENTER>255.6744</ARG_OF_PERICENTER><MEAN_ANOMALY>104.3848</MEAN_ANOMALY></meanElements><tleParameters><EPHEMERIS_TYPE>0</EPHEMERIS_TYPE><CLASSIFICATION_TYPE>U</CLASSIFICATION_TYPE><NORAD_CAT_ID>41181</NORAD_CAT_ID><ELEMENT_SET_NO>999</ELEMENT_SET_NO><REV_AT_EPOCH>46347</REV_AT_EPOCH><BSTAR>.59892E-3</BSTAR><MEAN_MOTION_DOT>.1938E-4</MEAN_MOTION_DOT><MEAN_MOTION_DDOT>0</MEAN_MOTION_DDOT></tleParameters></data></segment></body></omm>
<omm id="CCSDS_OMM_VERS" version="2.0">
<header><CREATION_DATE/><ORIGINATOR/></header><body><segment><metadata><OBJECT_NAME>ORBCOMM FM110</OBJECT_NAME><OBJECT_ID>2015-081D</OBJECT_ID><CENTER_NAME>EARTH</CENTER_NAME><REF_FRAME>TEME</REF_FRAME><TIME_SYSTEM>UTC</TIME_SYSTEM><MEAN_ELEMENT_THEORY>SGP4</MEAN_ELEMENT_THEORY></metadata><data><meanElements><EPOCH>2024-10-02T11:40:56.103744</EPOCH><MEAN_MOTION>14.57102450</MEAN_MOTION><ECCENTRICITY>.0000683</ECCENTRICITY><INCLINATION>47.0010</INCLINATION><RA_OF_ASC_NODE>62.6045</RA_OF_ASC_NODE><ARG_OF_PERICENTER>351.9105</ARG_OF_PERICENTER><MEAN_ANOMALY>8.1769</MEAN_ANOMALY></meanElements><tleParameters><EPHEMERIS_TYPE>0</EPHEMERIS_TYPE><CLASSIFICATION_TYPE>U</CLASSIFICATION_TYPE><NORAD_CAT_ID>41182</NORAD_CAT_ID><ELEMENT_SET_NO>999</ELEMENT_SET_NO><REV_AT_EPOCH>46674</REV_AT_EPOCH><BSTAR>.12603E-2</BSTAR><MEAN_MOTION_DOT>.557E-4</MEAN_MOTION_DOT><MEAN_MOTION_DDOT>0</MEAN_MOTION_DDOT></tleParameters></data></segment></body></omm>
<omm id="CCSDS_OMM_VERS" version="2.0">
<header><CREATION_DATE/><ORIGINATOR/></header><body><segment><metadata><OBJECT_NAME>ORBCOMM FM118</OBJECT_NAME><OBJECT_ID>2015-081E</OBJECT_ID><CENTER_NAME>EARTH</CENTER_NAME><REF_FRAME>TEME</REF_FRAME><TIME_SYSTEM>UTC</TIME_SYSTEM><MEAN_ELEMENT_THEORY>SGP4</MEAN_ELEMENT_THEORY></metadata><data><meanElements><EPOCH>2024-10-02T19:23:07.063296</EPOCH><MEAN_MOTION>14.57114440</MEAN_MOTION><ECCENTRICITY>.0000806</ECCENTRICITY><INCLINATION>47.0031</INCLINATION><RA_OF_ASC_NODE>61.4354</RA_OF_ASC_NODE><ARG_OF_PERICENTER>22.1782</ARG_OF_PERICENTER><MEAN_ANOMALY>337.9137</MEAN_ANOMALY></meanElements><tleParameters><EPHEMERIS_TYPE>0</EPHEMERIS_TYPE><CLASSIFICATION_TYPE>U</CLASSIFICATION_TYPE><NORAD_CAT_ID>41183</NORAD_CAT_ID><ELEMENT_SET_NO>999</ELEMENT_SET_NO><REV_AT_EPOCH>46697</REV_AT_EPOCH><BSTAR>.11837E-2</BSTAR><MEAN_MOTION_DOT>.5223E-4</MEAN_MOTION_DOT><MEAN_MOTION_DDOT>0</MEAN_MOTION_DDOT></tleParameters></data></segment></body></omm>
<omm id="CCSDS_OMM_VERS" version="2.0">
<header><CREATION_DATE/><ORIGINATOR/></header><body><segment><metadata><OBJECT_NAME>ORBCOMM FM112</OBJECT_NAME><OBJECT_ID>2015-081F</OBJECT_ID><CENTER_NAME>EARTH</CENTER_NAME><REF_FRAME>TEME</REF_FRAME><TIME_SYSTEM>UTC</TIME_SYSTEM><MEAN_ELEMENT_THEORY>SGP4</MEAN_ELEMENT_THEORY></metadata><data><meanElements><EPOCH>2024-10-02T12:46:56.160480</EPOCH><MEAN_MOTION>14.57114278</MEAN_MOTION><ECCENTRICITY>.0002729</ECCENTRICITY><INCLINATION>46.9990</INCLINATION><RA_OF_ASC_NODE>331.4334</RA_OF_ASC_NODE><ARG_OF_PERICENTER>285.2456</ARG_OF_PERICENTER><MEAN_ANOMALY>74.8127</MEAN_ANOMALY></meanElements><tleParameters><EPHEMERIS_TYPE>0</EPHEMERIS_TYPE><CLASSIFICATION_TYPE>U</CLASSIFICATION_TYPE><NORAD_CAT_ID>41184</NORAD_CAT_ID><ELEMENT_SET_NO>999</ELEMENT_SET_NO><REV_AT_EPOCH>46812</REV_AT_EPOCH><BSTAR>.13247E-2</BSTAR><MEAN_MOTION_DOT>.5865E-4</MEAN_MOTION_DOT><MEAN_MOTION_DDOT>0</MEAN_MOTION_DDOT></tleParameters></data></segment></body></omm>
<omm id="CCSDS_OMM_VERS" version="2.0">
<header><CREATION_DATE/><ORIGINATOR/></header><body><segment><metadata><OBJECT_NAME>ORBCOMM FM113</OBJECT_NAME><OBJECT_ID>2015-081G</OBJECT_ID><CENTER_NAME>EARTH</CENTER_NAME><REF_FRAME>TEME</REF_FRAME><TIME_SYSTEM>UTC</TIME_SYSTEM><MEAN_ELEMENT_THEORY>SGP4</MEAN_ELEMENT_THEORY></metadata><data><meanElements><EPOCH>2024-10-02T10:35:05.725536</EPOCH><MEAN_MOTION>14.57107112</MEAN_MOTION><ECCENTRICITY>.0002326</ECCENTRICITY><INCLINATION>47.0010</INCLINATION><RA_OF_ASC_NODE>332.1523</RA_OF_ASC_NODE><ARG_OF_PERICENTER>298.4307</ARG_OF_PERICENTER><MEAN_ANOMALY>61.6343</MEAN_ANOMALY></meanElements><tleParameters><EPHEMERIS_TYPE>0</EPHEMERIS_TYPE><CLASSIFICATION_TYPE>U</CLASSIFICATION_TYPE><NORAD_CAT_ID>41185</NORAD_CAT_ID><ELEMENT_SET_NO>999</ELEMENT_SET_NO><REV_AT_EPOCH>46804</REV_AT_EPOCH><BSTAR>.10945E-2</BSTAR><MEAN_MOTION_DOT>.4815E-4</MEAN_MOTION_DOT><MEAN_MOTION_DDOT>0</MEAN_MOTION_DDOT></tleParameters></data></segment></body></omm>

</ndm>
