ORBCOMM FM103           
1 40091U 14040F   24276.06962659  .00003094  00000+0  71627-3 0  9998
2 40091  47.0042 155.9902 0002049 186.6611 173.4247 14.57142925526447
ORBCOMM FM114           
1 41179U 15081A   24276.78483824  .00006751  00000+0  15187-2 0  9994
2 41179  47.0017  61.8152 0003132 248.9046 111.1505 14.57120743466967
ORBCOMM FM119           
1 41180U 15081B   24276.41795365  .00004353  00000+0  99257-3 0  9999
2 41180  47.0014 332.7755 0002196 295.2067  64.8591 14.57129515468116
ORBCOMM FM105           
1 41181U 15081C   24276.45219323  .00001938  00000+0  59892-3 0  9996
2 41181  47.0022 312.9086 0002593 255.6744 104.3848 14.44685620463475
ORBCOMM FM110           
1 41182U 15081D   24276.48676046  .00005570  00000+0  12603-2 0  9993
2 41182  47.0010  62.6045 0000683 351.9105   8.1769 14.57102450466741
ORBCOMM FM118           
1 41183U 15081E   24276.80772064  .00005223  00000+0  11837-2 0  9990
2 41183  47.0031  61.4354 0000806  22.1782 337.9137 14.57114440466979
ORBCOMM FM112           
1 41184U 15081F   24276.53259445  .00005865  00000+0  13247-2 0  9993
2 41184  46.9990 331.4334 0002729 285.2456  74.8127 14.57114278468120
ORBCOMM FM113           
1 41185U 15081G   24276.44103849  .00004815  00000+0  10945-2 0  9996
2 41185  47.0010 332.1523 0002326 298.4307  61.6343 14.57107112468042
